[{"OBJECT_NAME":"STARLINK-3395","OBJECT_ID":"2022-005AC","EPOCH":"2026-03-09T22:40:21.427680","MEAN_MOTION":15.08835564,"ECCENTRICITY":0.00012629,"INCLINATION":53.2174,"RA_OF_ASC_NODE":297.9767,"ARG_OF_PERICENTER":81.3781,"MEAN_ANOMALY":278.7354,"EPHEMERIS_TYPE":0,"CLASSIFICATION_TYPE":"U","NORAD_CAT_ID":51130,"ELEMENT_SET_NO":999,"REV_AT_EPOCH":22876,"BSTAR":2.8192551e-5,"MEAN_MOTION_DOT":1.61e-6,"MEAN_MOTION_DDOT":0},{"OBJECT_NAME":"CZ-4B DEB","OBJECT_ID":"2004-035J","EPOCH":"2026-03-07T20:16:16.859712","MEAN_MOTION":15.09572175,"ECCENTRICITY":0.00105031,"INCLINATION":97.5432,"RA_OF_ASC_NODE":82.067,"ARG_OF_PERICENTER":356.2804,"MEAN_ANOMALY":3.8346,"EPHEMERIS_TYPE":0,"CLASSIFICATION_TYPE":"U","NORAD_CAT_ID":29042,"ELEMENT_SET_NO":999,"REV_AT_EPOCH":69625,"BSTAR":0.00031812935,"MEAN_MOTION_DOT":5.052e-5,"MEAN_MOTION_DDOT":0}]
